ONEWEB-0158             
1 48054U 21025N   24146.41857100  .00000356  00000+0  94078-3 0  9998
2 48054  87.8910 110.0501 0001939  85.9280 274.2070 13.13469014154811
ONEWEB-0157             
1 48055U 21025P   24146.59472654  .00000173  00000+0  43910-3 0  9991
2 48055  87.8912 110.0300 0002008  75.9578 284.1774 13.13468019154778
ONEWEB-0162             
1 48056U 21025Q   24146.86294141 -.00001954  00000+0 -53873-2 0  9993
2 48056  87.8917 109.9727 0002051  81.2948 278.8413 13.13456218154760
ONEWEB-0155             
1 48057U 21025R   24146.42650519  .00000364  00000+0  96240-3 0  9999
2 48057  87.8910 110.0699 0002086  84.0813 276.0554 13.13468692154861
ONEWEB-0149             
1 48058U 21025S   24146.82801973  .00000378  00000+0  99908-3 0  9995
2 48058  87.8904 109.9876 0002043  87.7999 272.3364 13.13473109154730
ONEWEB-0148             
1 48059U 21025T   24146.41223153  .00000202  00000+0  51790-3 0  9992
2 48059  87.8912 110.0780 0001652  65.2865 294.8436 13.13472797154792
ONEWEB-0160             
1 48060U 21025U   24146.42809129  .00000431  00000+0  11451-2 0  9991
2 48060  87.8914 110.0714 0001985 112.7220 247.4119 13.13468546154749
ONEWEB-0163             
1 48061U 21025V   24146.41380899  .00000174  00000+0  44289-3 0  9999
2 48061  87.8910 110.0669 0002160  76.7637 283.3733 13.13469574154868
